[{"OBJECT_NAME":"GNOMES-3","OBJECT_ID":"2022-033B","EPOCH":"2026-03-09T16:59:59.477856","MEAN_MOTION":14.84669331,"ECCENTRICITY":0.00095992,"INCLINATION":97.8285,"RA_OF_ASC_NODE":146.8032,"ARG_OF_PERICENTER":290.7124,"MEAN_ANOMALY":69.3062,"EPHEMERIS_TYPE":0,"CLASSIFICATION_TYPE":"U","NORAD_CAT_ID":52158,"ELEMENT_SET_NO":999,"REV_AT_EPOCH":21257,"BSTAR":0.00036144772,"MEAN_MOTION_DOT":3.007e-5,"MEAN_MOTION_DDOT":0},{"OBJECT_NAME":"NOAA 17 DEB","OBJECT_ID":"2002-032AY","EPOCH":"2026-03-06T23:21:22.030560","MEAN_MOTION":14.89664022,"ECCENTRICITY":0.00164423,"INCLINATION":98.731,"RA_OF_ASC_NODE":72.2356,"ARG_OF_PERICENTER":98.896,"MEAN_ANOMALY":261.4117,"EPHEMERIS_TYPE":0,"CLASSIFICATION_TYPE":"U","NORAD_CAT_ID":48715,"ELEMENT_SET_NO":999,"REV_AT_EPOCH":25823,"BSTAR":0.0058392427,"MEAN_MOTION_DOT":0.0005635,"MEAN_MOTION_DDOT":0}]
